[{"OBJECT_NAME":"STARLINK-11584 [DTC]","OBJECT_ID":"2025-039C","EPOCH":"2026-03-04T22:26:50.591328","MEAN_MOTION":15.70876173,"ECCENTRICITY":0.0001945,"INCLINATION":42.9987,"RA_OF_ASC_NODE":265.8698,"ARG_OF_PERICENTER":267.0447,"MEAN_ANOMALY":93.0198,"EPHEMERIS_TYPE":0,"CLASSIFICATION_TYPE":"U","NORAD_CAT_ID":63106,"ELEMENT_SET_NO":999,"REV_AT_EPOCH":5886,"BSTAR":0.0026392,"MEAN_MOTION_DOT":0.00353543,"MEAN_MOTION_DDOT":0},{"OBJECT_NAME":"STARLINK-11627 [DTC]","OBJECT_ID":"2025-039D","EPOCH":"2026-03-04T21:40:58.105920","MEAN_MOTION":15.70860436,"ECCENTRICITY":0.0001863,"INCLINATION":42.9984,"RA_OF_ASC_NODE":265.6118,"ARG_OF_PERICENTER":290.8944,"MEAN_ANOMALY":69.1725,"EPHEMERIS_TYPE":0,"CLASSIFICATION_TYPE":"U","NORAD_CAT_ID":63107,"ELEMENT_SET_NO":999,"REV_AT_EPOCH":5886,"BSTAR":0.0013321,"MEAN_MOTION_DOT":0.00174262,"MEAN_MOTION_DDOT":0},{"OBJECT_NAME":"STARLINK-11632 [DTC]","OBJECT_ID":"2025-039E","EPOCH":"2026-03-04T22:03:56.878848","MEAN_MOTION":15.70949576,"ECCENTRICITY":0.0001661,"INCLINATION":42.9992,"RA_OF_ASC_NODE":265.7405,"ARG_OF_PERICENTER":273.2145,"MEAN_ANOMALY":86.8532,"EPHEMERIS_TYPE":0,"CLASSIFICATION_TYPE":"U","NORAD_CAT_ID":63108,"ELEMENT_SET_NO":999,"REV_AT_EPOCH":5886,"BSTAR":0.0022914,"MEAN_MOTION_DOT":0.00306055,"MEAN_MOTION_DDOT":0},{"OBJECT_NAME":"STARLINK-11625 [DTC]","OBJECT_ID":"2025-039F","EPOCH":"2026-03-04T22:11:32.860896","MEAN_MOTION":15.70827128,"ECCENTRICITY":0.0002072,"INCLINATION":43,"RA_OF_ASC_NODE":265.7823,"ARG_OF_PERICENTER":296.0893,"MEAN_ANOMALY":63.9762,"EPHEMERIS_TYPE":0,"CLASSIFICATION_TYPE":"U","NORAD_CAT_ID":63109,"ELEMENT_SET_NO":999,"REV_AT_EPOCH":5886,"BSTAR":0.0015508,"MEAN_MOTION_DOT":0.00203384,"MEAN_MOTION_DDOT":0},{"OBJECT_NAME":"STARLINK-11601 [DTC]","OBJECT_ID":"2025-039G","EPOCH":"2026-03-04T23:20:10.395456","MEAN_MOTION":15.70835256,"ECCENTRICITY":0.0001827,"INCLINATION":42.9995,"RA_OF_ASC_NODE":265.2704,"ARG_OF_PERICENTER":290.9645,"MEAN_ANOMALY":69.1027,"EPHEMERIS_TYPE":0,"CLASSIFICATION_TYPE":"U","NORAD_CAT_ID":63110,"ELEMENT_SET_NO":999,"REV_AT_EPOCH":5887,"BSTAR":0.0010829,"MEAN_MOTION_DOT":0.0014085,"MEAN_MOTION_DDOT":0},{"OBJECT_NAME":"STARLINK-11630 [DTC]","OBJECT_ID":"2025-039H","EPOCH":"2026-03-04T22:19:11.784864","MEAN_MOTION":15.7083745,"ECCENTRICITY":0.000202,"INCLINATION":42.9999,"RA_OF_ASC_NODE":265.8232,"ARG_OF_PERICENTER":294.3137,"MEAN_ANOMALY":65.752,"EPHEMERIS_TYPE":0,"CLASSIFICATION_TYPE":"U","NORAD_CAT_ID":63111,"ELEMENT_SET_NO":999,"REV_AT_EPOCH":5886,"BSTAR":0.0019346,"MEAN_MOTION_DOT":0.00255547,"MEAN_MOTION_DDOT":0},{"OBJECT_NAME":"STARLINK-11590 [DTC]","OBJECT_ID":"2025-039J","EPOCH":"2026-03-04T14:56:40.701120","MEAN_MOTION":15.71100127,"ECCENTRICITY":0.0003369,"INCLINATION":42.9977,"RA_OF_ASC_NODE":267.8261,"ARG_OF_PERICENTER":254.7626,"MEAN_ANOMALY":105.2869,"EPHEMERIS_TYPE":0,"CLASSIFICATION_TYPE":"U","NORAD_CAT_ID":63112,"ELEMENT_SET_NO":999,"REV_AT_EPOCH":5881,"BSTAR":0.0034662,"MEAN_MOTION_DOT":0.00475907,"MEAN_MOTION_DDOT":0},{"OBJECT_NAME":"STARLINK-11598 [DTC]","OBJECT_ID":"2025-039K","EPOCH":"2026-03-04T23:27:49.390272","MEAN_MOTION":15.70856534,"ECCENTRICITY":0.000136,"INCLINATION":43.0013,"RA_OF_ASC_NODE":265.3122,"ARG_OF_PERICENTER":288.7,"MEAN_ANOMALY":71.372,"EPHEMERIS_TYPE":0,"CLASSIFICATION_TYPE":"U","NORAD_CAT_ID":63113,"ELEMENT_SET_NO":999,"REV_AT_EPOCH":5887,"BSTAR":0.0017732,"MEAN_MOTION_DOT":0.00233757,"MEAN_MOTION_DDOT":0},{"OBJECT_NAME":"STARLINK-11600 [DTC]","OBJECT_ID":"2025-039L","EPOCH":"2026-03-04T23:04:52.899168","MEAN_MOTION":15.70837173,"ECCENTRICITY":0.0001926,"INCLINATION":42.9988,"RA_OF_ASC_NODE":265.1837,"ARG_OF_PERICENTER":257.6745,"MEAN_ANOMALY":102.3907,"EPHEMERIS_TYPE":0,"CLASSIFICATION_TYPE":"U","NORAD_CAT_ID":63114,"ELEMENT_SET_NO":999,"REV_AT_EPOCH":5887,"BSTAR":0.00098483,"MEAN_MOTION_DOT":0.00127867,"MEAN_MOTION_DDOT":0},{"OBJECT_NAME":"STARLINK-11597 [DTC]","OBJECT_ID":"2025-039M","EPOCH":"2026-03-05T04:00:01.999584","MEAN_MOTION":15.70878009,"ECCENTRICITY":0.000184,"INCLINATION":43.0002,"RA_OF_ASC_NODE":263.7977,"ARG_OF_PERICENTER":259.2157,"MEAN_ANOMALY":241.4181,"EPHEMERIS_TYPE":0,"CLASSIFICATION_TYPE":"U","NORAD_CAT_ID":63115,"ELEMENT_SET_NO":999,"REV_AT_EPOCH":602,"BSTAR":-0.00030872,"MEAN_MOTION_DOT":-0.00039937,"MEAN_MOTION_DDOT":0},{"OBJECT_NAME":"STARLINK-11591 [DTC]","OBJECT_ID":"2025-039N","EPOCH":"2026-03-04T15:04:08.208192","MEAN_MOTION":15.70829788,"ECCENTRICITY":0.0004063,"INCLINATION":42.9996,"RA_OF_ASC_NODE":266.9682,"ARG_OF_PERICENTER":285.1352,"MEAN_ANOMALY":74.9066,"EPHEMERIS_TYPE":0,"CLASSIFICATION_TYPE":"U","NORAD_CAT_ID":63116,"ELEMENT_SET_NO":999,"REV_AT_EPOCH":5882,"BSTAR":0.0021708,"MEAN_MOTION_DOT":0.00287883,"MEAN_MOTION_DDOT":0},{"OBJECT_NAME":"STARLINK-32955","OBJECT_ID":"2025-039P","EPOCH":"2026-03-05T04:00:01.999584","MEAN_MOTION":15.34095837,"ECCENTRICITY":0.0006738,"INCLINATION":43.0002,"RA_OF_ASC_NODE":37.2797,"ARG_OF_PERICENTER":173.8937,"MEAN_ANOMALY":314.0034,"EPHEMERIS_TYPE":0,"CLASSIFICATION_TYPE":"U","NORAD_CAT_ID":63117,"ELEMENT_SET_NO":999,"REV_AT_EPOCH":574,"BSTAR":0.0037358,"MEAN_MOTION_DOT":0.00127879,"MEAN_MOTION_DDOT":0},{"OBJECT_NAME":"STARLINK-32945","OBJECT_ID":"2025-039Q","EPOCH":"2026-03-05T05:03:05.587776","MEAN_MOTION":15.27615614,"ECCENTRICITY":2.22e-5,"INCLINATION":42.998,"RA_OF_ASC_NODE":37.9114,"ARG_OF_PERICENTER":249.0815,"MEAN_ANOMALY":111.0013,"EPHEMERIS_TYPE":0,"CLASSIFICATION_TYPE":"U","NORAD_CAT_ID":63118,"ELEMENT_SET_NO":999,"REV_AT_EPOCH":5738,"BSTAR":0.0013191,"MEAN_MOTION_DOT":0.00036256,"MEAN_MOTION_DDOT":0},{"OBJECT_NAME":"STARLINK-32941","OBJECT_ID":"2025-039R","EPOCH":"2026-03-04T07:10:28.991424","MEAN_MOTION":15.27626606,"ECCENTRICITY":8.404e-5,"INCLINATION":43.0089,"RA_OF_ASC_NODE":31.8471,"ARG_OF_PERICENTER":273.8607,"MEAN_ANOMALY":86.2149,"EPHEMERIS_TYPE":0,"CLASSIFICATION_TYPE":"U","NORAD_CAT_ID":63119,"ELEMENT_SET_NO":999,"REV_AT_EPOCH":5737,"BSTAR":0.001590053,"MEAN_MOTION_DOT":0.00043815,"MEAN_MOTION_DDOT":0},{"OBJECT_NAME":"STARLINK-32942","OBJECT_ID":"2025-039S","EPOCH":"2026-03-04T22:55:43.104864","MEAN_MOTION":15.27591102,"ECCENTRICITY":4.82e-5,"INCLINATION":42.9992,"RA_OF_ASC_NODE":39.4386,"ARG_OF_PERICENTER":242.8243,"MEAN_ANOMALY":117.256,"EPHEMERIS_TYPE":0,"CLASSIFICATION_TYPE":"U","NORAD_CAT_ID":63120,"ELEMENT_SET_NO":999,"REV_AT_EPOCH":5734,"BSTAR":0.0018743,"MEAN_MOTION_DOT":0.00051694,"MEAN_MOTION_DDOT":0},{"OBJECT_NAME":"STARLINK-32947","OBJECT_ID":"2025-039T","EPOCH":"2026-03-04T00:11:15.717984","MEAN_MOTION":15.27615587,"ECCENTRICITY":0.00015583,"INCLINATION":42.9995,"RA_OF_ASC_NODE":44.3587,"ARG_OF_PERICENTER":187.6161,"MEAN_ANOMALY":172.4667,"EPHEMERIS_TYPE":0,"CLASSIFICATION_TYPE":"U","NORAD_CAT_ID":63121,"ELEMENT_SET_NO":999,"REV_AT_EPOCH":5720,"BSTAR":0.001244917,"MEAN_MOTION_DOT":0.00034192,"MEAN_MOTION_DDOT":0},{"OBJECT_NAME":"STARLINK-32961","OBJECT_ID":"2025-039U","EPOCH":"2026-03-04T07:30:48.610368","MEAN_MOTION":15.27634317,"ECCENTRICITY":0.00011961,"INCLINATION":43.0032,"RA_OF_ASC_NODE":43.2247,"ARG_OF_PERICENTER":294.1495,"MEAN_ANOMALY":65.9232,"EPHEMERIS_TYPE":0,"CLASSIFICATION_TYPE":"U","NORAD_CAT_ID":63122,"ELEMENT_SET_NO":999,"REV_AT_EPOCH":5724,"BSTAR":0.0015268819,"MEAN_MOTION_DOT":0.00042064,"MEAN_MOTION_DDOT":0},{"OBJECT_NAME":"STARLINK-32948","OBJECT_ID":"2025-039V","EPOCH":"2026-03-04T07:19:42.926880","MEAN_MOTION":15.27622012,"ECCENTRICITY":4.064e-5,"INCLINATION":42.998,"RA_OF_ASC_NODE":43.1607,"ARG_OF_PERICENTER":306.7584,"MEAN_ANOMALY":53.323,"EPHEMERIS_TYPE":0,"CLASSIFICATION_TYPE":"U","NORAD_CAT_ID":63123,"ELEMENT_SET_NO":999,"REV_AT_EPOCH":5724,"BSTAR":0.0020354514,"MEAN_MOTION_DOT":0.00056249,"MEAN_MOTION_DDOT":0},{"OBJECT_NAME":"STARLINK-32957","OBJECT_ID":"2025-039W","EPOCH":"2026-03-04T07:40:03.961920","MEAN_MOTION":15.27617643,"ECCENTRICITY":6.02e-5,"INCLINATION":42.9999,"RA_OF_ASC_NODE":43.2685,"ARG_OF_PERICENTER":231.2153,"MEAN_ANOMALY":128.8645,"EPHEMERIS_TYPE":0,"CLASSIFICATION_TYPE":"U","NORAD_CAT_ID":63124,"ELEMENT_SET_NO":999,"REV_AT_EPOCH":5724,"BSTAR":0.0016022716,"MEAN_MOTION_DOT":0.00044144,"MEAN_MOTION_DDOT":0},{"OBJECT_NAME":"STARLINK-11609 [DTC]","OBJECT_ID":"2025-043A","EPOCH":"2026-03-04T22:31:11.494272","MEAN_MOTION":15.70844285,"ECCENTRICITY":0.0002757,"INCLINATION":42.9998,"RA_OF_ASC_NODE":279.4668,"ARG_OF_PERICENTER":249.9166,"MEAN_ANOMALY":110.1405,"EPHEMERIS_TYPE":0,"CLASSIFICATION_TYPE":"U","NORAD_CAT_ID":63132,"ELEMENT_SET_NO":999,"REV_AT_EPOCH":5871,"BSTAR":0.001804,"MEAN_MOTION_DOT":0.00237827,"MEAN_MOTION_DDOT":0},{"OBJECT_NAME":"STARLINK-11604 [DTC]","OBJECT_ID":"2025-043B","EPOCH":"2026-03-04T23:01:46.815168","MEAN_MOTION":15.70834557,"ECCENTRICITY":0.0002189,"INCLINATION":43.0001,"RA_OF_ASC_NODE":279.6388,"ARG_OF_PERICENTER":299.3398,"MEAN_ANOMALY":60.7251,"EPHEMERIS_TYPE":0,"CLASSIFICATION_TYPE":"U","NORAD_CAT_ID":63133,"ELEMENT_SET_NO":999,"REV_AT_EPOCH":5860,"BSTAR":0.0019364,"MEAN_MOTION_DOT":0.00255763,"MEAN_MOTION_DDOT":0},{"OBJECT_NAME":"STARLINK-11605 [DTC]","OBJECT_ID":"2025-043C","EPOCH":"2026-03-05T00:10:24.011040","MEAN_MOTION":15.70869541,"ECCENTRICITY":0.00032,"INCLINATION":43.0026,"RA_OF_ASC_NODE":279.126,"ARG_OF_PERICENTER":272.2288,"MEAN_ANOMALY":87.8213,"EPHEMERIS_TYPE":0,"CLASSIFICATION_TYPE":"U","NORAD_CAT_ID":63134,"ELEMENT_SET_NO":999,"REV_AT_EPOCH":5861,"BSTAR":0.0016549,"MEAN_MOTION_DOT":0.00217845,"MEAN_MOTION_DDOT":0},{"OBJECT_NAME":"STARLINK-11610 [DTC]","OBJECT_ID":"2025-043D","EPOCH":"2026-03-05T01:49:36.316128","MEAN_MOTION":15.70881901,"ECCENTRICITY":0.0002551,"INCLINATION":43.0004,"RA_OF_ASC_NODE":278.7853,"ARG_OF_PERICENTER":283.7784,"MEAN_ANOMALY":76.2799,"EPHEMERIS_TYPE":0,"CLASSIFICATION_TYPE":"U","NORAD_CAT_ID":63135,"ELEMENT_SET_NO":999,"REV_AT_EPOCH":5862,"BSTAR":0.0021023,"MEAN_MOTION_DOT":0.00279059,"MEAN_MOTION_DDOT":0}]
